{"type": "FeatureCollection", "features": [{"type": "Feature", "properties": {"norad_id": 24876, "name": "GPS BIIR-2  (PRN 13)", "group": "gps-ops", "lat": -0.4839175747134733, "lon": -74.28018563967633, "alt_km": 20323.28980038462, "timestamp": "2025-12-24T22:42:22.289588+00:00", "meta": {"OBJECT_NAME": "GPS BIIR-2  (PRN 13)", "OBJECT_ID": "1997-035A", "EPOCH": "2025-12-23T04:52:08.851872", "MEAN_MOTION": 2.00563705, "ECCENTRICITY": 0.0096844, "INCLINATION": 55.9001, "RA_OF_ASC_NODE": 105.4597, "ARG_OF_PERICENTER": 56.9573, "MEAN_ANOMALY": 303.9609, "EPHEMERIS_TYPE": 0, "CLASSIFICATION_TYPE": "U", "NORAD_CAT_ID": 24876, "ELEMENT_SET_NO": 999, "REV_AT_EPOCH": 20842, "BSTAR": 0, "MEAN_MOTION_DOT": 2e-07, "MEAN_MOTION_DDOT": 0}, "tle": {"line1": "1 24876U 97035A   25357.20288023  .00000020  00000+0  00000+0 0  9998", "line2": "2 24876  55.9001 105.4597 0096844  56.9573 303.9609  2.00563705208420"}}, "geometry": {"type": "Point", "coordinates": [-74.28018563967633, -0.4839175747134733]}}, {"type": "Feature", "properties": {"norad_id": 26360, "name": "GPS BIIR-4  (PRN 20)", "group": "gps-ops", "lat": -54.99769959746495, "lon": -60.3757350883425, "alt_km": 20096.96098923665, "timestamp": "2025-12-24T22:42:22.289614+00:00", "meta": {"OBJECT_NAME": "GPS BIIR-4  (PRN 20)", "OBJECT_ID": "2000-025A", "EPOCH": "2025-12-24T00:51:46.954368", "MEAN_MOTION": 2.00566722, "ECCENTRICITY": 0.00388905, "INCLINATION": 55.0519, "RA_OF_ASC_NODE": 26.3811, "ARG_OF_PERICENTER": 243.065, "MEAN_ANOMALY": 91.4559, "EPHEMERIS_TYPE": 0, "CLASSIFICATION_TYPE": "U", "NORAD_CAT_ID": 26360, "ELEMENT_SET_NO": 999, "REV_AT_EPOCH": 18775, "BSTAR": 0, "MEAN_MOTION_DOT": -5.6e-07, "MEAN_MOTION_DDOT": 0}, "tle": {"line1": "1 26360U 00025A   25358.03596012 -.00000056  00000+0  00000+0 0  9993", "line2": "2 26360  55.0519  26.3811 0038890 243.0650  91.4559  2.00566722187754"}}, "geometry": {"type": "Point", "coordinates": [-60.3757350883425, -54.99769959746495]}}, {"type": "Feature", "properties": {"norad_id": 26407, "name": "GPS BIIR-5  (PRN 22)", "group": "gps-ops", "lat": 49.505020883237336, "lon": -13.368965822210479, "alt_km": 20502.922175539163, "timestamp": "2025-12-24T22:42:22.289631+00:00", "meta": {"OBJECT_NAME": "GPS BIIR-5  (PRN 22)", "OBJECT_ID": "2000-040A", "EPOCH": "2025-12-24T00:49:48.055872", "MEAN_MOTION": 2.00568088, "ECCENTRICITY": 0.01253966, "INCLINATION": 54.8883, "RA_OF_ASC_NODE": 222.1199, "ARG_OF_PERICENTER": 301.9909, "MEAN_ANOMALY": 231.2222, "EPHEMERIS_TYPE": 0, "CLASSIFICATION_TYPE": "U", "NORAD_CAT_ID": 26407, "ELEMENT_SET_NO": 999, "REV_AT_EPOCH": 18643, "BSTAR": 0, "MEAN_MOTION_DOT": 6.5e-07, "MEAN_MOTION_DDOT": 0}, "tle": {"line1": "1 26407U 00040A   25358.03458398  .00000065  00000+0  00000+0 0  9995", "line2": "2 26407  54.8883 222.1199 0125396 301.9909 231.2222  2.00568088186433"}}, "geometry": {"type": "Point", "coordinates": [-13.368965822210479, 49.505020883237336]}}, {"type": "Feature", "properties": {"norad_id": 27663, "name": "GPS BIIR-8  (PRN 16)", "group": "gps-ops", "lat": -48.8143227591725, "lon": 95.32174782022038, "alt_km": 20566.53264550552, "timestamp": "2025-12-24T22:42:22.289646+00:00", "meta": {"OBJECT_NAME": "GPS BIIR-8  (PRN 16)", "OBJECT_ID": "2003-005A", "EPOCH": "2025-12-23T07:51:19.360224", "MEAN_MOTION": 2.00570305, "ECCENTRICITY": 0.0147825, "INCLINATION": 54.921, "RA_OF_ASC_NODE": 221.9571, "ARG_OF_PERICENTER": 51.9554, "MEAN_ANOMALY": 106.5355, "EPHEMERIS_TYPE": 0, "CLASSIFICATION_TYPE": "U", "NORAD_CAT_ID": 27663, "ELEMENT_SET_NO": 999, "REV_AT_EPOCH": 16778, "BSTAR": 0, "MEAN_MOTION_DOT": 6.6e-07, "MEAN_MOTION_DDOT": 0}, "tle": {"line1": "1 27663U 03005A   25357.32730741  .00000066  00000+0  00000+0 0  9991", "line2": "2 27663  54.9210 221.9571 0147825  51.9554 106.5355  2.00570305167786"}}, "geometry": {"type": "Point", "coordinates": [95.32174782022038, -48.8143227591725]}}, {"type": "Feature", "properties": {"norad_id": 28190, "name": "GPS BIIR-11 (PRN 19)", "group": "gps-ops", "lat": 35.088654023438195, "lon": -47.806976982400364, "alt_km": 20334.36916591428, "timestamp": "2025-12-24T22:42:22.289659+00:00", "meta": {"OBJECT_NAME": "GPS BIIR-11 (PRN 19)", "OBJECT_ID": "2004-009A", "EPOCH": "2025-12-22T01:59:41.237952", "MEAN_MOTION": 2.00560473, "ECCENTRICITY": 0.01084919, "INCLINATION": 54.9772, "RA_OF_ASC_NODE": 282.8425, "ARG_OF_PERICENTER": 167.7907, "MEAN_ANOMALY": 330.6754, "EPHEMERIS_TYPE": 0, "CLASSIFICATION_TYPE": "U", "NORAD_CAT_ID": 28190, "ELEMENT_SET_NO": 999, "REV_AT_EPOCH": 15939, "BSTAR": 0, "MEAN_MOTION_DOT": -2.4e-07, "MEAN_MOTION_DDOT": 0}, "tle": {"line1": "1 28190U 04009A   25356.08311618 -.00000024  00000+0  00000+0 0  9997", "line2": "2 28190  54.9772 282.8425 0108491 167.7907 330.6754  2.00560473159399"}}, "geometry": {"type": "Point", "coordinates": [-47.806976982400364, 35.088654023438195]}}, {"type": "Feature", "properties": {"norad_id": 28474, "name": "GPS BIIR-13 (PRN 02)", "group": "gps-ops", "lat": 51.800749911102365, "lon": 89.98439000303827, "alt_km": 20593.671293121508, "timestamp": "2025-12-24T22:42:22.289672+00:00", "meta": {"OBJECT_NAME": "GPS BIIR-13 (PRN 02)", "OBJECT_ID": "2004-045A", "EPOCH": "2025-12-23T11:54:23.371776", "MEAN_MOTION": 2.0057002, "ECCENTRICITY": 0.01709537, "INCLINATION": 55.2353, "RA_OF_ASC_NODE": 331.9733, "ARG_OF_PERICENTER": 309.7322, "MEAN_ANOMALY": 189.3988, "EPHEMERIS_TYPE": 0, "CLASSIFICATION_TYPE": "U", "NORAD_CAT_ID": 28474, "ELEMENT_SET_NO": 999, "REV_AT_EPOCH": 15490, "BSTAR": 0, "MEAN_MOTION_DOT": -6.3e-07, "MEAN_MOTION_DDOT": 0}, "tle": {"line1": "1 28474U 04045A   25357.49610384 -.00000063  00000+0  00000+0 0  9993", "line2": "2 28474  55.2353 331.9733 0170953 309.7322 189.3988  2.00570020154901"}}, "geometry": {"type": "Point", "coordinates": [89.98439000303827, 51.800749911102365]}}, {"type": "Feature", "properties": {"norad_id": 28874, "name": "GPS BIIRM-1 (PRN 17)", "group": "gps-ops", "lat": 48.726026218746036, "lon": -26.993144984829513, "alt_km": 20408.47949942093, "timestamp": "2025-12-24T22:42:22.289684+00:00", "meta": {"OBJECT_NAME": "GPS BIIRM-1 (PRN 17)", "OBJECT_ID": "2005-038A", "EPOCH": "2025-12-23T15:29:31.408224", "MEAN_MOTION": 2.005777, "ECCENTRICITY": 0.01313078, "INCLINATION": 55.0222, "RA_OF_ASC_NODE": 280.2619, "ARG_OF_PERICENTER": 293.8052, "MEAN_ANOMALY": 272.4454, "EPHEMERIS_TYPE": 0, "CLASSIFICATION_TYPE": "U", "NORAD_CAT_ID": 28874, "ELEMENT_SET_NO": 999, "REV_AT_EPOCH": 14831, "BSTAR": 0, "MEAN_MOTION_DOT": -2e-07, "MEAN_MOTION_DDOT": 0}, "tle": {"line1": "1 28874U 05038A   25357.64550241 -.00000020  00000+0  00000+0 0  9995", "line2": "2 28874  55.0222 280.2619 0131307 293.8052 272.4454  2.00577700148312"}}, "geometry": {"type": "Point", "coordinates": [-26.993144984829513, 48.726026218746036]}}, {"type": "Feature", "properties": {"norad_id": 29486, "name": "GPS BIIRM-2 (PRN 31)", "group": "gps-ops", "lat": -26.91654346305152, "lon": 137.16155089114062, "alt_km": 20163.248353778654, "timestamp": "2025-12-24T22:42:22.289696+00:00", "meta": {"OBJECT_NAME": "GPS BIIRM-2 (PRN 31)", "OBJECT_ID": "2006-042A", "EPOCH": "2025-12-23T12:09:08.290944", "MEAN_MOTION": 2.00553717, "ECCENTRICITY": 0.01072791, "INCLINATION": 54.6953, "RA_OF_ASC_NODE": 158.3137, "ARG_OF_PERICENTER": 52.2028, "MEAN_ANOMALY": 315.7837, "EPHEMERIS_TYPE": 0, "CLASSIFICATION_TYPE": "U", "NORAD_CAT_ID": 29486, "ELEMENT_SET_NO": 999, "REV_AT_EPOCH": 14087, "BSTAR": 0, "MEAN_MOTION_DOT": 8.4e-07, "MEAN_MOTION_DDOT": 0}, "tle": {"line1": "1 29486U 06042A   25357.50634596  .00000084  00000+0  00000+0 0  9991", "line2": "2 29486  54.6953 158.3137 0107279  52.2028 315.7837  2.00553717140870"}}, "geometry": {"type": "Point", "coordinates": [137.16155089114062, -26.91654346305152]}}, {"type": "Feature", "properties": {"norad_id": 29601, "name": "GPS BIIRM-3 (PRN 12)", "group": "gps-ops", "lat": 20.29936649670497, "lon": -124.03666644268998, "alt_km": 20069.21952064591, "timestamp": "2025-12-24T22:42:22.289708+00:00", "meta": {"OBJECT_NAME": "GPS BIIRM-3 (PRN 12)", "OBJECT_ID": "2006-052A", "EPOCH": "2025-12-22T22:00:58.169952", "MEAN_MOTION": 2.00574295, "ECCENTRICITY": 0.0087996, "INCLINATION": 54.9685, "RA_OF_ASC_NODE": 220.9942, "ARG_OF_PERICENTER": 87.562, "MEAN_ANOMALY": 273.5353, "EPHEMERIS_TYPE": 0, "CLASSIFICATION_TYPE": "U", "NORAD_CAT_ID": 29601, "ELEMENT_SET_NO": 999, "REV_AT_EPOCH": 13987, "BSTAR": 0, "MEAN_MOTION_DOT": 6.8e-07, "MEAN_MOTION_DDOT": 0}, "tle": {"line1": "1 29601U 06052A   25356.91733993  .00000068  00000+0  00000+0 0  9998", "line2": "2 29601  54.9685 220.9942 0087996  87.5620 273.5353  2.00574295139872"}}, "geometry": {"type": "Point", "coordinates": [-124.03666644268998, 20.29936649670497]}}, {"type": "Feature", "properties": {"norad_id": 32260, "name": "GPS BIIRM-4 (PRN 15)", "group": "gps-ops", "lat": 10.087116022603789, "lon": -100.16720707794073, "alt_km": 20114.38405845702, "timestamp": "2025-12-24T22:42:22.289720+00:00", "meta": {"OBJECT_NAME": "GPS BIIRM-4 (PRN 15)", "OBJECT_ID": "2007-047A", "EPOCH": "2025-12-23T05:22:00.882048", "MEAN_MOTION": 2.00564099, "ECCENTRICITY": 0.01640403, "INCLINATION": 53.9621, "RA_OF_ASC_NODE": 87.3254, "ARG_OF_PERICENTER": 85.3777, "MEAN_ANOMALY": 276.5133, "EPHEMERIS_TYPE": 0, "CLASSIFICATION_TYPE": "U", "NORAD_CAT_ID": 32260, "ELEMENT_SET_NO": 999, "REV_AT_EPOCH": 13328, "BSTAR": 0, "MEAN_MOTION_DOT": -6e-08, "MEAN_MOTION_DDOT": 0}, "tle": {"line1": "1 32260U 07047A   25357.22362132 -.00000006  00000+0  00000+0 0  9999", "line2": "2 32260  53.9621  87.3254 0164040  85.3777 276.5133  2.00564099133281"}}, "geometry": {"type": "Point", "coordinates": [-100.16720707794073, 10.087116022603789]}}]}